CCSDS_OMM_VERS = 2.0
CREATION_DATE  = 
ORIGINATOR     = 

OBJECT_NAME    = CYGNUS NG-23
OBJECT_ID      = 2025-208A
CENTER_NAME    = EARTH
REF_FRAME      = TEME
TIME_SYSTEM    = UTC
MEAN_ELEMENT_THEORY = SGP/SGP4

EPOCH          = 2025-12-26T12:50:01.193856
MEAN_MOTION    = 15.49844261
ECCENTRICITY   = .00032307
INCLINATION    = 51.6320
RA_OF_ASC_NODE = 74.1581
ARG_OF_PERICENTER = 305.5588
MEAN_ANOMALY   = 54.5099

EPHEMERIS_TYPE = 0
CLASSIFICATION_TYPE = U
NORAD_CAT_ID   = 65616
ELEMENT_SET_NO = 999
REV_AT_EPOCH   = 22
BSTAR          = .25381537E-3
MEAN_MOTION_DOT = .13978E-3
MEAN_MOTION_DDOT = 0

CCSDS_OMM_VERS = 2.0
CREATION_DATE  = 
ORIGINATOR     = 

OBJECT_NAME    = DRAGONFLY
OBJECT_ID      = 1998-067XH
CENTER_NAME    = EARTH
REF_FRAME      = TEME
TIME_SYSTEM    = UTC
MEAN_ELEMENT_THEORY = SGP/SGP4

EPOCH          = 2025-12-26T10:48:09.332064
MEAN_MOTION    = 15.76805342
ECCENTRICITY   = .0008231
INCLINATION    = 51.6248
RA_OF_ASC_NODE = 65.3139
ARG_OF_PERICENTER = 358.0707
MEAN_ANOMALY   = 2.0260

EPHEMERIS_TYPE = 0
CLASSIFICATION_TYPE = U
NORAD_CAT_ID   = 65729
ELEMENT_SET_NO = 999
REV_AT_EPOCH   = 1532
BSTAR          = .12148E-2
MEAN_MOTION_DOT = .204396E-2
MEAN_MOTION_DDOT = 0

CCSDS_OMM_VERS = 2.0
CREATION_DATE  = 
ORIGINATOR     = 

OBJECT_NAME    = 1998-067XK
OBJECT_ID      = 1998-067XK
CENTER_NAME    = EARTH
REF_FRAME      = TEME
TIME_SYSTEM    = UTC
MEAN_ELEMENT_THEORY = SGP/SGP4

EPOCH          = 2025-12-26T10:41:00.043296
MEAN_MOTION    = 15.68417906
ECCENTRICITY   = .000501
INCLINATION    = 51.6285
RA_OF_ASC_NODE = 67.5635
ARG_OF_PERICENTER = 330.6256
MEAN_ANOMALY   = 29.4459

EPHEMERIS_TYPE = 0
CLASSIFICATION_TYPE = U
NORAD_CAT_ID   = 65731
ELEMENT_SET_NO = 999
REV_AT_EPOCH   = 1529
BSTAR          = .8587E-3
MEAN_MOTION_DOT = .99452E-3
MEAN_MOTION_DDOT = 0

CCSDS_OMM_VERS = 2.0
CREATION_DATE  = 
ORIGINATOR     = 

OBJECT_NAME    = RSP-03
OBJECT_ID      = 1998-067XL
CENTER_NAME    = EARTH
REF_FRAME      = TEME
TIME_SYSTEM    = UTC
MEAN_ELEMENT_THEORY = SGP/SGP4

EPOCH          = 2025-12-26T11:37:50.673792
MEAN_MOTION    = 15.72242351
ECCENTRICITY   = .0006063
INCLINATION    = 51.6261
RA_OF_ASC_NODE = 66.3111
ARG_OF_PERICENTER = 338.1349
MEAN_ANOMALY   = 21.9390

EPHEMERIS_TYPE = 0
CLASSIFICATION_TYPE = U
NORAD_CAT_ID   = 65732
ELEMENT_SET_NO = 999
REV_AT_EPOCH   = 1532
BSTAR          = .10599E-2
MEAN_MOTION_DOT = .145049E-2
MEAN_MOTION_DDOT = 0

CCSDS_OMM_VERS = 2.0
CREATION_DATE  = 
ORIGINATOR     = 

OBJECT_NAME    = GHS-01
OBJECT_ID      = 1998-067XM
CENTER_NAME    = EARTH
REF_FRAME      = TEME
TIME_SYSTEM    = UTC
MEAN_ELEMENT_THEORY = SGP/SGP4

EPOCH          = 2025-12-26T11:55:32.712960
MEAN_MOTION    = 15.81335345
ECCENTRICITY   = .0009525
INCLINATION    = 51.6280
RA_OF_ASC_NODE = 64.1357
ARG_OF_PERICENTER = 2.9798
MEAN_ANOMALY   = 357.1259

EPHEMERIS_TYPE = 0
CLASSIFICATION_TYPE = U
NORAD_CAT_ID   = 65733
ELEMENT_SET_NO = 999
REV_AT_EPOCH   = 1535
BSTAR          = .13992E-2
MEAN_MOTION_DOT = .292398E-2
MEAN_MOTION_DDOT = 0

CCSDS_OMM_VERS = 2.0
CREATION_DATE  = 
ORIGINATOR     = 

OBJECT_NAME    = YOTSUBA-KULOVER
OBJECT_ID      = 1998-067XN
CENTER_NAME    = EARTH
REF_FRAME      = TEME
TIME_SYSTEM    = UTC
MEAN_ELEMENT_THEORY = SGP/SGP4

EPOCH          = 2025-12-26T14:38:51.631584
MEAN_MOTION    = 15.61332207
ECCENTRICITY   = .00025713
INCLINATION    = 51.6289
RA_OF_ASC_NODE = 70.1673
ARG_OF_PERICENTER = 5.6559
MEAN_ANOMALY   = 354.4463

EPHEMERIS_TYPE = 0
CLASSIFICATION_TYPE = U
NORAD_CAT_ID   = 65941
ELEMENT_SET_NO = 999
REV_AT_EPOCH   = 1202
BSTAR          = .84261791E-3
MEAN_MOTION_DOT = .7325E-3
MEAN_MOTION_DDOT = 0

CCSDS_OMM_VERS = 2.0
CREATION_DATE  = 
ORIGINATOR     = 

OBJECT_NAME    = BOTAN
OBJECT_ID      = 1998-067XP
CENTER_NAME    = EARTH
REF_FRAME      = TEME
TIME_SYSTEM    = UTC
MEAN_ELEMENT_THEORY = SGP/SGP4

EPOCH          = 2025-12-26T10:52:42.060576
MEAN_MOTION    = 15.65808737
ECCENTRICITY   = .00035646
INCLINATION    = 51.6278
RA_OF_ASC_NODE = 69.8667
ARG_OF_PERICENTER = 346.4862
MEAN_ANOMALY   = 13.6037

EPHEMERIS_TYPE = 0
CLASSIFICATION_TYPE = U
NORAD_CAT_ID   = 65942
ELEMENT_SET_NO = 999
REV_AT_EPOCH   = 1201
BSTAR          = .10505339E-2
MEAN_MOTION_DOT = .10964E-2
MEAN_MOTION_DDOT = 0

CCSDS_OMM_VERS = 2.0
CREATION_DATE  = 
ORIGINATOR     = 

OBJECT_NAME    = E-KAGAKU-1
OBJECT_ID      = 1998-067XQ
CENTER_NAME    = EARTH
REF_FRAME      = TEME
TIME_SYSTEM    = UTC
MEAN_ELEMENT_THEORY = SGP/SGP4

EPOCH          = 2025-12-26T11:34:38.215200
MEAN_MOTION    = 15.61326456
ECCENTRICITY   = .00014737
INCLINATION    = 51.6304
RA_OF_ASC_NODE = 70.8185
ARG_OF_PERICENTER = 333.5123
MEAN_ANOMALY   = 26.5795

EPHEMERIS_TYPE = 0
CLASSIFICATION_TYPE = U
NORAD_CAT_ID   = 65943
ELEMENT_SET_NO = 999
REV_AT_EPOCH   = 1200
BSTAR          = .7949653E-3
MEAN_MOTION_DOT = .69021E-3
MEAN_MOTION_DDOT = 0

CCSDS_OMM_VERS = 2.0
CREATION_DATE  = 
ORIGINATOR     = 

OBJECT_NAME    = HRC MONOBLOCK CAMERA
OBJECT_ID      = 1998-067XR
CENTER_NAME    = EARTH
REF_FRAME      = TEME
TIME_SYSTEM    = UTC
MEAN_ELEMENT_THEORY = SGP/SGP4

EPOCH          = 2025-12-26T14:24:31.276800
MEAN_MOTION    = 15.55102813
ECCENTRICITY   = .0001915
INCLINATION    = 51.6303
RA_OF_ASC_NODE = 72.3477
ARG_OF_PERICENTER = 253.6034
MEAN_ANOMALY   = 106.4747

EPHEMERIS_TYPE = 0
CLASSIFICATION_TYPE = U
NORAD_CAT_ID   = 66052
ELEMENT_SET_NO = 999
REV_AT_EPOCH   = 1099
BSTAR          = .53584E-3
MEAN_MOTION_DOT = .36444E-3
MEAN_MOTION_DDOT = 0

CCSDS_OMM_VERS = 2.0
CREATION_DATE  = 
ORIGINATOR     = 

OBJECT_NAME    = HTV-X1
OBJECT_ID      = 2025-241A
CENTER_NAME    = EARTH
REF_FRAME      = TEME
TIME_SYSTEM    = UTC
MEAN_ELEMENT_THEORY = SGP/SGP4

EPOCH          = 2025-12-26T12:50:01.193856
MEAN_MOTION    = 15.49844261
ECCENTRICITY   = .00032307
INCLINATION    = 51.6320
RA_OF_ASC_NODE = 74.1581
ARG_OF_PERICENTER = 305.5588
MEAN_ANOMALY   = 54.5099

EPHEMERIS_TYPE = 0
CLASSIFICATION_TYPE = U
NORAD_CAT_ID   = 66174
ELEMENT_SET_NO = 999
REV_AT_EPOCH   = 51
BSTAR          = .25381537E-3
MEAN_MOTION_DOT = .13978E-3
MEAN_MOTION_DDOT = 0

CCSDS_OMM_VERS = 2.0
CREATION_DATE  = 
ORIGINATOR     = 

OBJECT_NAME    = SZ-21 MODULE
OBJECT_ID      = 2025-246C
CENTER_NAME    = EARTH
REF_FRAME      = TEME
TIME_SYSTEM    = UTC
MEAN_ELEMENT_THEORY = SGP/SGP4

EPOCH          = 2025-12-25T04:36:53.601984
MEAN_MOTION    = 15.63137537
ECCENTRICITY   = .0004589
INCLINATION    = 41.4767
RA_OF_ASC_NODE = 300.0489
ARG_OF_PERICENTER = 327.9877
MEAN_ANOMALY   = 32.0683

EPHEMERIS_TYPE = 0
CLASSIFICATION_TYPE = U
NORAD_CAT_ID   = 66515
ELEMENT_SET_NO = 999
REV_AT_EPOCH   = 639
BSTAR          = .31272E-3
MEAN_MOTION_DOT = .29146E-3
MEAN_MOTION_DDOT = 0

CCSDS_OMM_VERS = 2.0
CREATION_DATE  = 
ORIGINATOR     = 

OBJECT_NAME    = SHENZHOU-22
OBJECT_ID      = 2025-272A
CENTER_NAME    = EARTH
REF_FRAME      = TEME
TIME_SYSTEM    = UTC
MEAN_ELEMENT_THEORY = SGP/SGP4

EPOCH          = 2025-12-26T05:27:30.670848
MEAN_MOTION    = 15.59708409
ECCENTRICITY   = .00085179
INCLINATION    = 41.4680
RA_OF_ASC_NODE = 294.7909
ARG_OF_PERICENTER = 149.5046
MEAN_ANOMALY   = 210.6289

EPHEMERIS_TYPE = 0
CLASSIFICATION_TYPE = U
NORAD_CAT_ID   = 66645
ELEMENT_SET_NO = 999
REV_AT_EPOCH   = 26598
BSTAR          = .23601706E-3
MEAN_MOTION_DOT = .19151E-3
MEAN_MOTION_DDOT = 0

