CYGNUS NG-23            
1 65616U 25208A   25360.53473604  .00013978  00000+0  25382-3 0  9999
2 65616  51.6320  74.1581 0003230 305.5588  54.5099 15.49844261   221
DRAGONFLY               
1 65729U 98067XH  25360.45010801  .00204396  00000+0  12148-2 0  9995
2 65729  51.6248  65.3139 0008231 358.0707   2.0260 15.76805342 15320
1998-067XK              
1 65731U 98067XK  25360.44513939  .00099452  00000+0  85870-3 0  9995
2 65731  51.6285  67.5635 0005010 330.6256  29.4459 15.68417906 15291
RSP-03                  
1 65732U 98067XL  25360.48461428  .00145049  00000+0  10599-2 0  9994
2 65732  51.6261  66.3111 0006063 338.1349  21.9390 15.72242351 15327
GHS-01                  
1 65733U 98067XM  25360.49690640  .00292398  00000+0  13992-2 0  9996
2 65733  51.6280  64.1357 0009525   2.9798 357.1259 15.81335345 15354
YOTSUBA-KULOVER         
1 65941U 98067XN  25360.61031981  .00073250  00000+0  84262-3 0  9991
2 65941  51.6289  70.1673 0002571   5.6559 354.4463 15.61332207 12021
BOTAN                   
1 65942U 98067XP  25360.45326459  .00109640  00000+0  10505-2 0  9992
2 65942  51.6278  69.8667 0003564 346.4862  13.6037 15.65808737 12014
E-KAGAKU-1              
1 65943U 98067XQ  25360.48238675  .00069021  00000+0  79497-3 0  9992
2 65943  51.6304  70.8185 0001473 333.5123  26.5795 15.61326456 12008
HRC MONOBLOCK CAMERA    
1 66052U 98067XR  25360.60036200  .00036444  00000+0  53584-3 0  9990
2 66052  51.6303  72.3477 0001915 253.6034 106.4747 15.55102813 10997
HTV-X1                  
1 66174U 25241A   25360.53473604  .00013978  00000+0  25382-3 0  9996
2 66174  51.6320  74.1581 0003230 305.5588  54.5099 15.49844261   513
SZ-21 MODULE            
1 66515U 25246C   25359.19228706  .00029146  00000+0  31272-3 0  9990
2 66515  41.4767 300.0489 0004589 327.9877  32.0683 15.63137537  6398
SHENZHOU-22             
1 66645U 25272A   25360.22743832  .00019151  00000+0  23602-3 0  9994
2 66645  41.4680 294.7909 0008517 149.5046 210.6289 15.59708409265988
